[{"OBJECT_NAME":"STARLINK-4095","OBJECT_ID":"2022-083AQ","EPOCH":"2026-01-22T05:13:42.138048","MEAN_MOTION":15.08823098,"ECCENTRICITY":0.00013839,"INCLINATION":53.2186,"RA_OF_ASC_NODE":7.6919,"ARG_OF_PERICENTER":84.1314,"MEAN_ANOMALY":275.9836,"EPHEMERIS_TYPE":0,"CLASSIFICATION_TYPE":"U","NORAD_CAT_ID":53170,"ELEMENT_SET_NO":999,"REV_AT_EPOCH":19441,"BSTAR":-0.00014267827,"MEAN_MOTION_DOT":-2.557e-5,"MEAN_MOTION_DDOT":0},{"OBJECT_NAME":"STARLINK-4052","OBJECT_ID":"2022-083AR","EPOCH":"2026-01-22T06:12:36.737856","MEAN_MOTION":15.08832816,"ECCENTRICITY":0.00012089,"INCLINATION":53.2191,"RA_OF_ASC_NODE":342.3174,"ARG_OF_PERICENTER":75.9597,"MEAN_ANOMALY":284.153,"EPHEMERIS_TYPE":0,"CLASSIFICATION_TYPE":"U","NORAD_CAT_ID":53171,"ELEMENT_SET_NO":999,"REV_AT_EPOCH":19476,"BSTAR":-0.00011329343,"MEAN_MOTION_DOT":-2.09e-5,"MEAN_MOTION_DDOT":0},{"OBJECT_NAME":"STARLINK-4299","OBJECT_ID":"2022-083AS","EPOCH":"2026-01-22T05:03:06.023232","MEAN_MOTION":15.08826744,"ECCENTRICITY":0.000124,"INCLINATION":53.2184,"RA_OF_ASC_NODE":7.6863,"ARG_OF_PERICENTER":101.5939,"MEAN_ANOMALY":258.5193,"EPHEMERIS_TYPE":0,"CLASSIFICATION_TYPE":"U","NORAD_CAT_ID":53172,"ELEMENT_SET_NO":999,"REV_AT_EPOCH":19440,"BSTAR":-3.9686046e-5,"MEAN_MOTION_DOT":-9.19e-6,"MEAN_MOTION_DDOT":0},{"OBJECT_NAME":"STARLINK-4300","OBJECT_ID":"2022-083AT","EPOCH":"2026-01-22T03:56:51.498816","MEAN_MOTION":15.08833386,"ECCENTRICITY":0.00018446,"INCLINATION":53.2199,"RA_OF_ASC_NODE":347.9704,"ARG_OF_PERICENTER":79.578,"MEAN_ANOMALY":280.542,"EPHEMERIS_TYPE":0,"CLASSIFICATION_TYPE":"U","NORAD_CAT_ID":53173,"ELEMENT_SET_NO":999,"REV_AT_EPOCH":19467,"BSTAR":5.0008832e-5,"MEAN_MOTION_DOT":5.08e-6,"MEAN_MOTION_DDOT":0},{"OBJECT_NAME":"STARLINK-4205","OBJECT_ID":"2022-083AU","EPOCH":"2026-01-22T06:03:25.748640","MEAN_MOTION":15.08824649,"ECCENTRICITY":0.00014299,"INCLINATION":53.2193,"RA_OF_ASC_NODE":22.5191,"ARG_OF_PERICENTER":93.8759,"MEAN_ANOMALY":266.2396,"EPHEMERIS_TYPE":0,"CLASSIFICATION_TYPE":"U","NORAD_CAT_ID":53174,"ELEMENT_SET_NO":999,"REV_AT_EPOCH":19420,"BSTAR":-6.6886381e-5,"MEAN_MOTION_DOT":-1.352e-5,"MEAN_MOTION_DDOT":0},{"OBJECT_NAME":"STARLINK-4292","OBJECT_ID":"2022-083AV","EPOCH":"2026-01-22T06:07:21.097920","MEAN_MOTION":15.08819054,"ECCENTRICITY":0.00014406,"INCLINATION":53.2182,"RA_OF_ASC_NODE":22.573,"ARG_OF_PERICENTER":99.0747,"MEAN_ANOMALY":261.0409,"EPHEMERIS_TYPE":0,"CLASSIFICATION_TYPE":"U","NORAD_CAT_ID":53175,"ELEMENT_SET_NO":999,"REV_AT_EPOCH":19420,"BSTAR":-7.9538198e-5,"MEAN_MOTION_DOT":-1.553e-5,"MEAN_MOTION_DDOT":0},{"OBJECT_NAME":"STARLINK-4294","OBJECT_ID":"2022-083AW","EPOCH":"2026-01-22T04:37:54.908832","MEAN_MOTION":15.08831545,"ECCENTRICITY":0.0001064,"INCLINATION":53.2182,"RA_OF_ASC_NODE":357.7651,"ARG_OF_PERICENTER":87.7316,"MEAN_ANOMALY":272.3798,"EPHEMERIS_TYPE":0,"CLASSIFICATION_TYPE":"U","NORAD_CAT_ID":53176,"ELEMENT_SET_NO":999,"REV_AT_EPOCH":19454,"BSTAR":-0.00013604331,"MEAN_MOTION_DOT":-2.452e-5,"MEAN_MOTION_DDOT":0},{"OBJECT_NAME":"STARLINK-4298","OBJECT_ID":"2022-083AX","EPOCH":"2026-01-22T06:57:02.675520","MEAN_MOTION":15.08818047,"ECCENTRICITY":0.00014419,"INCLINATION":53.2185,"RA_OF_ASC_NODE":347.4083,"ARG_OF_PERICENTER":99.1579,"MEAN_ANOMALY":260.9577,"EPHEMERIS_TYPE":0,"CLASSIFICATION_TYPE":"U","NORAD_CAT_ID":53177,"ELEMENT_SET_NO":999,"REV_AT_EPOCH":19469,"BSTAR":-0.00023182259,"MEAN_MOTION_DOT":-3.973e-5,"MEAN_MOTION_DDOT":0},{"OBJECT_NAME":"STARLINK-4280","OBJECT_ID":"2022-083AY","EPOCH":"2026-01-22T05:58:05.259072","MEAN_MOTION":15.08836861,"ECCENTRICITY":0.00014047,"INCLINATION":53.2195,"RA_OF_ASC_NODE":12.6026,"ARG_OF_PERICENTER":85.6404,"MEAN_ANOMALY":274.4749,"EPHEMERIS_TYPE":0,"CLASSIFICATION_TYPE":"U","NORAD_CAT_ID":53178,"ELEMENT_SET_NO":999,"REV_AT_EPOCH":19433,"BSTAR":0.00017194175,"MEAN_MOTION_DOT":2.449e-5,"MEAN_MOTION_DDOT":0},{"OBJECT_NAME":"STARLINK-4276","OBJECT_ID":"2022-083AZ","EPOCH":"2026-01-22T05:47:26.639520","MEAN_MOTION":15.08818798,"ECCENTRICITY":0.00017186,"INCLINATION":53.2213,"RA_OF_ASC_NODE":332.2323,"ARG_OF_PERICENTER":66.0651,"MEAN_ANOMALY":294.0521,"EPHEMERIS_TYPE":0,"CLASSIFICATION_TYPE":"U","NORAD_CAT_ID":53179,"ELEMENT_SET_NO":999,"REV_AT_EPOCH":19490,"BSTAR":-0.00027128922,"MEAN_MOTION_DOT":-4.601e-5,"MEAN_MOTION_DDOT":0},{"OBJECT_NAME":"STARLINK-4258","OBJECT_ID":"2022-083BA","EPOCH":"2026-01-22T06:24:32.888448","MEAN_MOTION":15.08834854,"ECCENTRICITY":0.00015439,"INCLINATION":53.2183,"RA_OF_ASC_NODE":332.3902,"ARG_OF_PERICENTER":95.013,"MEAN_ANOMALY":265.1039,"EPHEMERIS_TYPE":0,"CLASSIFICATION_TYPE":"U","NORAD_CAT_ID":53180,"ELEMENT_SET_NO":999,"REV_AT_EPOCH":19490,"BSTAR":-1.4988472e-5,"MEAN_MOTION_DOT":-5.26e-6,"MEAN_MOTION_DDOT":0},{"OBJECT_NAME":"STARLINK-4278","OBJECT_ID":"2022-083BC","EPOCH":"2026-01-22T06:51:43.514784","MEAN_MOTION":15.08835998,"ECCENTRICITY":0.00014201,"INCLINATION":53.2181,"RA_OF_ASC_NODE":347.4272,"ARG_OF_PERICENTER":91.6201,"MEAN_ANOMALY":268.4954,"EPHEMERIS_TYPE":0,"CLASSIFICATION_TYPE":"U","NORAD_CAT_ID":53182,"ELEMENT_SET_NO":999,"REV_AT_EPOCH":19469,"BSTAR":4.3231663e-5,"MEAN_MOTION_DOT":4.0e-6,"MEAN_MOTION_DDOT":0},{"OBJECT_NAME":"STARLINK-4268","OBJECT_ID":"2022-083BD","EPOCH":"2026-01-22T07:03:38.935296","MEAN_MOTION":15.08831756,"ECCENTRICITY":0.0001487,"INCLINATION":53.2189,"RA_OF_ASC_NODE":337.3102,"ARG_OF_PERICENTER":90.7462,"MEAN_ANOMALY":269.37,"EPHEMERIS_TYPE":0,"CLASSIFICATION_TYPE":"U","NORAD_CAT_ID":53183,"ELEMENT_SET_NO":999,"REV_AT_EPOCH":19483,"BSTAR":-0.0001036559,"MEAN_MOTION_DOT":-1.937e-5,"MEAN_MOTION_DDOT":0},{"OBJECT_NAME":"STARLINK-4257","OBJECT_ID":"2022-083BE","EPOCH":"2026-01-22T05:42:07.402752","MEAN_MOTION":15.0882169,"ECCENTRICITY":0.00012136,"INCLINATION":53.2198,"RA_OF_ASC_NODE":332.2369,"ARG_OF_PERICENTER":73.0801,"MEAN_ANOMALY":287.0324,"EPHEMERIS_TYPE":0,"CLASSIFICATION_TYPE":"U","NORAD_CAT_ID":53184,"ELEMENT_SET_NO":999,"REV_AT_EPOCH":19491,"BSTAR":-7.0212064e-5,"MEAN_MOTION_DOT":-1.404e-5,"MEAN_MOTION_DDOT":0},{"OBJECT_NAME":"STARLINK-4391","OBJECT_ID":"2022-084A","EPOCH":"2026-01-22T04:03:54.419904","MEAN_MOTION":15.05648187,"ECCENTRICITY":0.00016416,"INCLINATION":97.6025,"RA_OF_ASC_NODE":85.3142,"ARG_OF_PERICENTER":95.4958,"MEAN_ANOMALY":264.6456,"EPHEMERIS_TYPE":0,"CLASSIFICATION_TYPE":"U","NORAD_CAT_ID":53189,"ELEMENT_SET_NO":999,"REV_AT_EPOCH":19305,"BSTAR":-8.4893074e-5,"MEAN_MOTION_DOT":-1.285e-5,"MEAN_MOTION_DDOT":0},{"OBJECT_NAME":"STARLINK-4332","OBJECT_ID":"2022-084B","EPOCH":"2026-01-22T04:23:50.256384","MEAN_MOTION":15.05650864,"ECCENTRICITY":9.93e-5,"INCLINATION":97.6035,"RA_OF_ASC_NODE":85.3657,"ARG_OF_PERICENTER":111.8619,"MEAN_ANOMALY":248.2714,"EPHEMERIS_TYPE":0,"CLASSIFICATION_TYPE":"U","NORAD_CAT_ID":53190,"ELEMENT_SET_NO":999,"REV_AT_EPOCH":19305,"BSTAR":7.8085328e-5,"MEAN_MOTION_DOT":1.066e-5,"MEAN_MOTION_DDOT":0}]
