STARLINK-4095           
1 53170U 22083AQ  26022.21784882 -.00002557  00000+0 -14268-3 0  9997
2 53170  53.2186   7.6919 0001383  84.1314 275.9836 15.08823098194414
STARLINK-4052           
1 53171U 22083AR  26022.25875854 -.00002090  00000+0 -11329-3 0  9999
2 53171  53.2191 342.3174 0001208  75.9597 284.1530 15.08832816194769
STARLINK-4299           
1 53172U 22083AS  26022.21048638 -.00000919  00000+0 -39686-4 0  9993
2 53172  53.2184   7.6863 0001240 101.5939 258.5193 15.08826744194404
STARLINK-4300           
1 53173U 22083AT  26022.16448494  .00000508  00000+0  50009-4 0  9996
2 53173  53.2199 347.9704 0001844  79.5780 280.5420 15.08833386194670
STARLINK-4205           
1 53174U 22083AU  26022.25238135 -.00001352  00000+0 -66886-4 0  9996
2 53174  53.2193  22.5191 0001429  93.8759 266.2396 15.08824649194209
STARLINK-4292           
1 53175U 22083AV  26022.25510530 -.00001553  00000+0 -79538-4 0  9990
2 53175  53.2182  22.5730 0001440  99.0747 261.0409 15.08819054194207
STARLINK-4294           
1 53176U 22083AW  26022.19299663 -.00002452  00000+0 -13604-3 0  9995
2 53176  53.2182 357.7651 0001064  87.7316 272.3798 15.08831545194543
STARLINK-4298           
1 53177U 22083AX  26022.28961430 -.00003973  00000+0 -23182-3 0  9995
2 53177  53.2185 347.4083 0001441  99.1579 260.9577 15.08818047194695
STARLINK-4280           
1 53178U 22083AY  26022.24867198  .00002449  00000+0  17194-3 0  9999
2 53178  53.2195  12.6026 0001404  85.6404 274.4749 15.08836861194337
STARLINK-4276           
1 53179U 22083AZ  26022.24128055 -.00004601  00000+0 -27129-3 0  9995
2 53179  53.2213 332.2323 0001718  66.0651 294.0521 15.08818798194903
STARLINK-4258           
1 53180U 22083BA  26022.26704732 -.00000526  00000+0 -14988-4 0  9993
2 53180  53.2183 332.3902 0001543  95.0130 265.1039 15.08834854194909
STARLINK-4278           
1 53182U 22083BC  26022.28592031  .00000400  00000+0  43232-4 0  9997
2 53182  53.2181 347.4272 0001420  91.6201 268.4954 15.08835998194699
STARLINK-4268           
1 53183U 22083BD  26022.29420064 -.00001937  00000+0 -10366-3 0  9994
2 53183  53.2189 337.3102 0001487  90.7462 269.3700 15.08831756194833
STARLINK-4257           
1 53184U 22083BE  26022.23758568 -.00001404  00000+0 -70212-4 0  9998
2 53184  53.2198 332.2369 0001213  73.0801 287.0324 15.08821690194915
STARLINK-4391           
1 53189U 22084A   26022.16937986 -.00001285  00000+0 -84893-4 0  9996
2 53189  97.6025  85.3142 0001641  95.4958 264.6456 15.05648187193058
STARLINK-4332           
1 53190U 22084B   26022.18322056  .00001066  00000+0  78085-4 0  9997
2 53190  97.6035  85.3657 0000993 111.8619 248.2714 15.05650864193058
